0 DELTA 1 DEB
1 13535U 76077EH  13283.05316183 -.00000052  00000-0 -56161-4 0  5334
2 13535 102.0773 340.8022 0022830 307.5715 115.9303 12.39008138575263
0 DELTA 1 DEB
1 13535U 76077EH  13287.41431868 -.00000014  00000-0  23883-3 0  5359
2 13535 102.0766 345.1190 0022842 299.3623 128.7065 12.39008013575807
0 DELTA 1 DEB
1 13535U 76077EH  13289.68794225 -.00000018  00000-0  20530-3 0  5360
2 13535 102.0758 347.3694 0022831 295.0858 190.1144 12.39008266576084
0 DELTA 1 DEB
1 13535U 76077EH  13292.09769296 -.00000038  00000-0  56786-4 0  5375
2 13535 102.0752 349.7543 0022861 290.5428 138.7234 12.39008419576384
0 DELTA 1 DEB
1 13535U 76077EH  13294.11327987 -.00000051  00000-0 -45639-4 0  5389
2 13535 102.0750 351.7490 0022936 286.7272 129.1948 12.39008483576638
0 DELTA 1 DEB
1 13535U 76077EH  13296.13213738 -.00000056  00000-0 -80186-4 0  5393
2 13535 102.0748 353.7465 0022938 282.9656 134.1961 12.39008553576881
